{
  "norad_id": 59072,
  "name": "MARAFON-D GVM",
  "history": [
    {
      "epoch": "2026-03-28T21:19:58.745568Z",
      "apogee_km": 749.0750336163374,
      "perigee_km": 728.5996407876946,
      "latitude_deg": 9.359270726689798e-06,
      "longitude_deg": 147.25137648641714,
      "height_km": 746.2618606417527,
      "semi_major_axis_km": 7116.974337202016,
      "eccentricity": 0.00143849,
      "inclination_deg": 88.9788,
      "raan_deg": 293.549,
      "arg_perigee_deg": 245.0035,
      "mean_anomaly_deg": 114.9676,
      "mean_motion_rev_day": 14.45971264
    },
    {
      "epoch": "2026-03-29T03:58:35.215968Z",
      "apogee_km": 749.0865300095238,
      "perigee_km": 728.5867990661891,
      "latitude_deg": -4.677305218114321e-05,
      "longitude_deg": 47.29307816044282,
      "height_km": 746.4394786804888,
      "semi_major_axis_km": 7116.973664537856,
      "eccentricity": 0.0014402,
      "inclination_deg": 88.9788,
      "raan_deg": 293.5155,
      "arg_perigee_deg": 243.9313,
      "mean_anomaly_deg": 116.0409,
      "mean_motion_rev_day": 14.45971469
    },
    {
      "epoch": "2026-03-30T04:53:21.954048Z",
      "apogee_km": 749.1294859606169,
      "perigee_km": 728.5386652446832,
      "latitude_deg": -3.404429978942579e-05,
      "longitude_deg": 32.44979719753624,
      "height_km": 747.1011929015352,
      "semi_major_axis_km": 7116.97107560265,
      "eccentricity": 0.0014466,
      "inclination_deg": 88.9787,
      "raan_deg": 293.3901,
      "arg_perigee_deg": 239.8675,
      "mean_anomaly_deg": 120.1096,
      "mean_motion_rev_day": 14.45972258
    },
    {
      "epoch": "2026-03-30T06:33:01.069920Z",
      "apogee_km": 749.1345991155531,
      "perigee_km": 728.5329614584398,
      "latitude_deg": 7.021870948493171e-05,
      "longitude_deg": 7.460207003078827,
      "height_km": 747.1431215547002,
      "semi_major_axis_km": 7116.970780286996,
      "eccentricity": 0.00144736,
      "inclination_deg": 88.9787,
      "raan_deg": 293.3817,
      "arg_perigee_deg": 239.6132,
      "mean_anomaly_deg": 120.3643,
      "mean_motion_rev_day": 14.45972348
    },
    {
      "epoch": "2026-03-30T14:51:16.642368Z",
      "apogee_km": 749.1502364843573,
      "perigee_km": 728.5160050132699,
      "latitude_deg": -5.594172021695418e-06,
      "longitude_deg": -117.48752567844225,
      "height_km": 747.3569241610234,
      "semi_major_axis_km": 7116.970120748813,
      "eccentricity": 0.00144965,
      "inclination_deg": 88.9786,
      "raan_deg": 293.3399,
      "arg_perigee_deg": 238.2769,
      "mean_anomaly_deg": 121.7023,
      "mean_motion_rev_day": 14.45972549
    },
    {
      "epoch": "2026-03-30T23:09:32.209632Z",
      "apogee_km": 749.1711206913969,
      "perigee_km": 728.493762354773,
      "latitude_deg": -6.721197434618871e-06,
      "longitude_deg": 117.56466462348646,
      "height_km": 747.5725458422809,
      "semi_major_axis_km": 7116.969441523084,
      "eccentricity": 0.00145268,
      "inclination_deg": 88.9786,
      "raan_deg": 293.298,
      "arg_perigee_deg": 236.9322,
      "mean_anomaly_deg": 123.0488,
      "mean_motion_rev_day": 14.45972756
    },
    {
      "epoch": "2026-03-31T19:05:21.561216Z",
      "apogee_km": 749.2175586235226,
      "perigee_km": 728.4431309440988,
      "latitude_deg": -4.045428447941329e-05,
      "longitude_deg": 177.6902221475721,
      "height_km": 748.0714519518697,
      "semi_major_axis_km": 7116.96734478381,
      "eccentricity": 0.0014595,
      "inclination_deg": 88.9785,
      "raan_deg": 293.1977,
      "arg_perigee_deg": 233.751,
      "mean_anomaly_deg": 126.2346,
      "mean_motion_rev_day": 14.45973395
    },
    {
      "epoch": "2026-04-01T20:00:08.230176Z",
      "apogee_km": 749.2807175107109,
      "perigee_km": 728.3781870403764,
      "latitude_deg": 8.469763378111825e-07,
      "longitude_deg": 162.8471311355436,
      "height_km": 748.6820899660503,
      "semi_major_axis_km": 7116.966452275543,
      "eccentricity": 0.0014685,
      "inclination_deg": 88.9784,
      "raan_deg": 293.0722,
      "arg_perigee_deg": 229.747,
      "mean_anomaly_deg": 130.2451,
      "mean_motion_rev_day": 14.45973667
    },
    {
      "epoch": "2026-04-02T19:15:15.734016Z",
      "apogee_km": 749.3467584221953,
      "perigee_km": 728.3061676400894,
      "latitude_deg": 9.98697195277776e-06,
      "longitude_deg": 172.9937368888365,
      "height_km": 749.2274953662137,
      "semi_major_axis_km": 7116.963463031142,
      "eccentricity": 0.0014782,
      "inclination_deg": 88.9783,
      "raan_deg": 292.955,
      "arg_perigee_deg": 226.0495,
      "mean_anomaly_deg": 133.9491,
      "mean_motion_rev_day": 14.45974578
    },
    {
      "epoch": "2026-04-02T22:34:33.918240Z",
      "apogee_km": 749.3539467851224,
      "perigee_km": 728.2948579954491,
      "latitude_deg": 2.9986890174926593e-05,
      "longitude_deg": 123.01485163596529,
      "height_km": 749.3011702155441,
      "semi_major_axis_km": 7116.961402390285,
      "eccentricity": 0.0014795,
      "inclination_deg": 88.9783,
      "raan_deg": 292.9383,
      "arg_perigee_deg": 225.5234,
      "mean_anomaly_deg": 134.4762,
      "mean_motion_rev_day": 14.45975206
    }
  ]
}